IRIDIUM 135             
1 43070U 17083A   26185.59369399  .00000118  00000+0  35199-4 0  9998
2 43070  86.3983 314.7383 0002201  93.0417 267.1031 14.34218311446643
IRIDIUM 138             
1 43071U 17083B   26185.61906398  .00000111  00000+0  32645-4 0  9994
2 43071  86.3995 314.4258 0002140  88.2714 271.8727 14.34218340446638
IRIDIUM 116             
1 43072U 17083C   26185.79665659  .00000145  00000+0  44803-4 0  9992
2 43072  86.3982 314.6393 0002323 100.9704 259.1754 14.34218604446699
IRIDIUM 130             
1 43073U 17083D   26185.62540616  .00000111  00000+0  32624-4 0  9991
2 43073  86.3989 314.9877 0002090  98.9990 261.1443 14.34218114446617
IRIDIUM 151             
1 43074U 17083E   26186.29772170  .00000070  00000+0  18083-4 0  9995
2 43074  86.3984 314.4879 0002225  94.1441 266.0009 14.34218065446739
IRIDIUM 134             
1 43075U 17083F   26185.77762776  .00000351  00000+0  11832-3 0  9995
2 43075  86.3985 314.7132 0002138  94.2599 265.8841 14.34218536446626
IRIDIUM 137             
1 43076U 17083G   26185.79031469  .00000110  00000+0  32372-4 0  9992
2 43076  86.3984 314.8012 0002619  98.1812 261.9681 14.34218383446695
IRIDIUM 141             
1 43077U 17083H   26185.78397179  .00000067  00000+0  16999-4 0  9993
2 43077  86.3980 314.6335 0002188  91.9417 268.2030 14.34217975446695
IRIDIUM 153             
1 43078U 17083J   26186.22452988  .00000295  00000+0  98187-4 0  9996
2 43078  86.3966 282.9298 0002125  93.0619 267.0820 14.34218035447865
IRIDIUM 131             
1 43079U 17083K   26185.35267547  .00000082  00000+0  22055-4 0  9990
2 43079  86.3988 315.0009 0002230  93.4492 266.6959 14.34218106446561
IRIDIUM 144             
1 43249U 18030A   26186.23087311  .00000104  00000+0  30056-4 0  9994
2 43249  86.3963 282.8560 0002296  97.9758 262.1699 14.34217780432724
IRIDIUM 149             
1 43250U 18030B   26186.23721521  .00000103  00000+0  29777-4 0  9991
2 43250  86.3962 282.8201 0002265  93.4820 266.6635 14.34218317432742
IRIDIUM 157             
1 43251U 18030C   26185.69809519  .00000106  00000+0  30863-4 0  9996
2 43251  86.3965 283.0991 0002250  94.9591 265.1861 14.34218111432646
IRIDIUM 140             
1 43252U 18030D   26186.20550203  .00000115  00000+0  33962-4 0  9991
2 43252  86.3964 282.8995 0002227  95.6253 264.5196 14.34218341432777
IRIDIUM 145             
1 43253U 18030E   26186.26257766  .00000119  00000+0  35308-4 0  9996
2 43253  86.3963 282.8478 0002229 103.9394 256.2049 14.34216483432718
IRIDIUM 146             
1 43254U 18030F   26186.24355783  .00000060  00000+0  14469-4 0  9993
2 43254  86.3964 282.8679 0002305  98.0166 262.1291 14.34218142432729
IRIDIUM 148             
1 43255U 18030G   26186.21184414  .00000289  00000+0  96212-4 0  9991
2 43255  86.3963 282.9245 0002384  95.3814 264.7654 14.34219485432751
IRIDIUM 142             
1 43256U 18030H   26185.55221545  .00000366  00000+0  12348-3 0  9998
2 43256  86.3963 283.0887 0002326  99.5169 260.6290 14.34218108432629
IRIDIUM 150             
1 43257U 18030J   26186.21818723  .00000148  00000+0  45651-4 0  9995
2 43257  86.3965 282.9274 0002205  96.1341 264.0106 14.34218517432742
IRIDIUM 143             
1 43258U 18030K   26186.19915743  .00000101  00000+0  28888-4 0  9995
2 43258  86.3967 283.0284 0002152  98.4503 261.6937 14.34217223432674
IRIDIUM 161             
1 43478U 18047C   26185.77902496  .00000415  00000+0  11744-3 0  9991
2 43478  86.4473  81.1155 0002409  79.4709 280.6763 14.43282702427673
IRIDIUM 152             
1 43479U 18047D   26185.47420133  .00000372  00000+0  12562-3 0  9993
2 43479  86.3949  81.1043 0002212  81.7272 278.4174 14.34217435424961
IRIDIUM 147             
1 43480U 18047E   26186.17821513  .00000351  00000+0  11841-3 0  9996
2 43480  86.3949  80.8153 0002277  88.3199 271.8257 14.34217341425060
IRIDIUM 110             
1 43481U 18047F   26185.76595186  .00000015  00000+0 -15890-5 0  9993
2 43481  86.3952  81.0798 0002212  75.2581 284.8860 14.34217654424994
IRIDIUM 162             
1 43482U 18047G   26186.18870771  .00000427  00000+0  12106-3 0  9998
2 43482  86.4471  80.8349 0002233  83.6449 276.5006 14.43281838427729
IRIDIUM 160             
1 43569U 18061A   26186.06063011  .00000030  00000+0  36017-5 0  9997
2 43569  86.3947  49.3224 0002244  85.6871 274.4581 14.34217872415939
IRIDIUM 166             
1 43570U 18061B   26186.01623151  .00000133  00000+0  40428-4 0  9995
2 43570  86.3945  49.2912 0002220  89.0210 271.1240 14.34218476415950
IRIDIUM 158             
1 43571U 18061C   26186.05428531  .00000275  00000+0  91271-4 0  9994
2 43571  86.3945  49.2852 0002120  85.3365 274.8073 14.34219708415923
IRIDIUM 165             
1 43572U 18061D   26185.87035173  .00000077  00000+0  20429-4 0  9997
2 43572  86.3947  49.4090 0002171  89.9414 270.2030 14.34218237415922
IRIDIUM 155             
1 43573U 18061E   26186.04159801  .00000253  00000+0  83352-4 0  9993
2 43573  86.3941  49.2052 0002051  86.8736 273.2694 14.34220185415916
