OBJECT_NAME,OBJECT_ID,EPOCH,MEAN_MOTION,ECCENTRICITY,INCLINATION,RA_OF_ASC_NODE,ARG_OF_PERICENTER,MEAN_ANOMALY,EPHEMERIS_TYPE,CLASSIFICATION_TYPE,NORAD_CAT_ID,ELEMENT_SET_NO,REV_AT_EPOCH,BSTAR,MEAN_MOTION_DOT,MEAN_MOTION_DDOT
IRIDIUM 135,2017-083A,2026-07-04T14:14:55.160736,14.34218311,.00022015,86.3983,314.7383,93.0417,267.1031,0,U,43070,999,44664,.35199162E-4,.118E-5,0
IRIDIUM 138,2017-083B,2026-07-04T14:51:27.127872,14.34218340,.00021405,86.3995,314.4258,88.2714,271.8727,0,U,43071,999,44663,.32645281E-4,.111E-5,0
IRIDIUM 116,2017-083C,2026-07-04T19:07:11.129376,14.34218604,.00023238,86.3982,314.6393,100.9704,259.1754,0,U,43072,999,44669,.44803236E-4,.145E-5,0
IRIDIUM 130,2017-083D,2026-07-04T15:00:35.092224,14.34218114,.00020901,86.3989,314.9877,98.9990,261.1443,0,U,43073,999,44661,.32623675E-4,.111E-5,0
IRIDIUM 151,2017-083E,2026-07-05T07:08:43.154880,14.34218065,.00022253,86.3984,314.4879,94.1441,266.0009,0,U,43074,999,44673,.18082999E-4,.7E-6,0
IRIDIUM 134,2017-083F,2026-07-04T18:39:47.038464,14.34218536,.00021384,86.3985,314.7132,94.2599,265.8841,0,U,43075,999,44662,.11831597E-3,.351E-5,0
IRIDIUM 137,2017-083G,2026-07-04T18:58:03.189216,14.34218383,.00026195,86.3984,314.8012,98.1812,261.9681,0,U,43076,999,44669,.32372247E-4,.11E-5,0
IRIDIUM 141,2017-083H,2026-07-04T18:48:55.162656,14.34217975,.00021884,86.3980,314.6335,91.9417,268.2030,0,U,43077,999,44669,.16998766E-4,.67E-6,0
IRIDIUM 153,2017-083J,2026-07-05T05:23:19.381632,14.34218035,.00021258,86.3966,282.9298,93.0619,267.0820,0,U,43078,999,44786,.98187484E-4,.295E-5,0
IRIDIUM 131,2017-083K,2026-07-04T08:27:51.160608,14.34218106,.00022301,86.3988,315.0009,93.4492,266.6959,0,U,43079,999,44656,.22054852E-4,.82E-6,0
IRIDIUM 144,2018-030A,2026-07-05T05:32:27.436704,14.34217780,.00022962,86.3963,282.8560,97.9758,262.1699,0,U,43249,999,43272,.3005563E-4,.104E-5,0
IRIDIUM 149,2018-030B,2026-07-05T05:41:35.394144,14.34218317,.00022658,86.3962,282.8201,93.4820,266.6635,0,U,43250,999,43274,.2977698E-4,.103E-5,0
IRIDIUM 157,2018-030C,2026-07-04T16:45:15.424416,14.34218111,.00022504,86.3965,283.0991,94.9591,265.1861,0,U,43251,999,43264,.30862649E-4,.106E-5,0
IRIDIUM 140,2018-030D,2026-07-05T04:55:55.375392,14.34218341,.00022277,86.3964,282.8995,95.6253,264.5196,0,U,43252,999,43277,.33961735E-4,.115E-5,0
IRIDIUM 145,2018-030E,2026-07-05T06:18:06.709824,14.34216483,.0002229,86.3963,282.8478,103.9394,256.2049,0,U,43253,999,43271,.35308034E-4,.119E-5,0
IRIDIUM 146,2018-030F,2026-07-05T05:50:43.396512,14.34218142,.0002305,86.3964,282.8679,98.0166,262.1291,0,U,43254,999,43272,.14469198E-4,.6E-6,0
IRIDIUM 148,2018-030G,2026-07-05T05:05:03.333696,14.34219485,.00023843,86.3963,282.9245,95.3814,264.7654,0,U,43255,999,43275,.96212089E-4,.289E-5,0
IRIDIUM 142,2018-030H,2026-07-04T13:15:11.414880,14.34218108,.00023267,86.3963,283.0887,99.5169,260.6290,0,U,43256,999,43262,.12347604E-3,.366E-5,0
IRIDIUM 150,2018-030J,2026-07-05T05:14:11.376672,14.34218517,.00022051,86.3965,282.9274,96.1341,264.0106,0,U,43257,999,43274,.45650981E-4,.148E-5,0
IRIDIUM 143,2018-030K,2026-07-05T04:46:47.201952,14.34217223,.0002152,86.3967,283.0284,98.4503,261.6937,0,U,43258,999,43267,.28888201E-4,.101E-5,0
IRIDIUM 161,2018-047C,2026-07-04T18:41:47.756544,14.43282702,.00024098,86.4473,81.1155,79.4709,280.6763,0,U,43478,999,42767,.11743746E-3,.415E-5,0
IRIDIUM 152,2018-047D,2026-07-04T11:22:50.994912,14.34217435,.00022126,86.3949,81.1043,81.7272,278.4174,0,U,43479,999,42496,.12562338E-3,.372E-5,0
IRIDIUM 147,2018-047E,2026-07-05T04:16:37.787232,14.34217341,.00022776,86.3949,80.8153,88.3199,271.8257,0,U,43480,999,42506,.11841027E-3,.351E-5,0
IRIDIUM 110,2018-047F,2026-07-04T18:22:58.240704,14.34217654,.00022129,86.3952,81.0798,75.2581,284.8860,0,U,43481,999,42499,-.1589E-5,.15E-6,0
IRIDIUM 162,2018-047G,2026-07-05T04:31:44.346144,14.43281838,.00022335,86.4471,80.8349,83.6449,276.5006,0,U,43482,999,42772,.12105709E-3,.427E-5,0
IRIDIUM 160,2018-061A,2026-07-05T01:27:18.441504,14.34217872,.00022446,86.3947,49.3224,85.6871,274.4581,0,U,43569,999,41593,.3601721E-5,.3E-6,0
IRIDIUM 166,2018-061B,2026-07-05T00:23:22.402464,14.34218476,.00022207,86.3945,49.2912,89.0210,271.1240,0,U,43570,999,41595,.40428459E-4,.133E-5,0
IRIDIUM 158,2018-061C,2026-07-05T01:18:10.250784,14.34219708,.00021208,86.3945,49.2852,85.3365,274.8073,0,U,43571,999,41592,.91270573E-4,.275E-5,0
IRIDIUM 165,2018-061D,2026-07-04T20:53:18.389472,14.34218237,.00021716,86.3947,49.4090,89.9414,270.2030,0,U,43572,999,41592,.20429117E-4,.77E-6,0
IRIDIUM 155,2018-061E,2026-07-05T00:59:54.068064,14.34220185,.00020517,86.3941,49.2052,86.8736,273.2694,0,U,43573,999,41591,.83351737E-4,.253E-5,0
